address_name,phone,place_name,place_url,road_address_name
서울 중구 명동2가 99-3,02-778-8504,우현상품권,http://place.map.kakao.com/27404699,서울 중구 남대문로 60
서울 중구 명동2가 108-1,02-3789-0888,머니박스 명동본점,http://place.map.kakao.com/359268634,서울 중구 남대문로 52-1
서울 중구 명동2가 105,02-776-8927,대사관앞환전,http://place.map.kakao.com/26794769,서울 중구 명동2길 26
서울 중구 명동2가 87-4,,고고환전,http://place.map.kakao.com/1134850651,서울 중구 남대문로 66-1
서울 중구 명동2가 85-6,02-773-0000,명동제일환전센터,http://place.map.kakao.com/1578149180,서울 중구 남대문로 68-1
서울 중구 을지로2가 197,,명동환전소,http://place.map.kakao.com/1630860722,서울 중구 을지로 54-1
서울 중구 충무로1가 25-8,02-779-0369,명동로얄환전소,http://place.map.kakao.com/7857982,서울 중구 명동8나길 47
서울 중구 명동1가 36-3,02-318-8801,머니박스 명동2호점,http://place.map.kakao.com/650842372,서울 중구 명동9길 15
서울 중구 명동1가 28-2,,고래 환전소,http://place.map.kakao.com/9001791,서울 중구 명동길 49
서울 중구 명동2가 105,02-777-2007,씨티페이,http://place.map.kakao.com/780378038,서울 중구 남대문로 52-13
서울 중구 을지로2가 199-46,02-757-7008,나이스환전,http://place.map.kakao.com/12139705,서울 중구 명동3길 17
서울 중구 명동2가 105,02-318-2555,명동스카이환전,http://place.map.kakao.com/579363835,서울 중구 남대문로 52-13
서울 중구 명동2가 83-8,,한중환전,http://place.map.kakao.com/26582109,서울 중구 명동2길 43
서울 중구 을지로2가 199-57,02-777-9922,한미환전,http://place.map.kakao.com/212073720,서울 중구 명동7길 23
서울 중구 회현동1가 202-24,02-752-1999,ABC환전,http://place.map.kakao.com/1957395565,서울 중구 남대문로 40
서울 종로구 인사동 14-1,02-738-0888,머니박스 인사동지점,http://place.map.kakao.com/495512022,서울 종로구 인사동4길 1
서울 중구 충무로2가 12-3,02-3789-5051,로사환전,http://place.map.kakao.com/19488476,서울 중구 삼일대로 305
서울 중구 명동2가 105,,환전카페,http://place.map.kakao.com/41495933,서울 중구 남대문로 52-13
서울 중구 회현동1가 94-1,02-771-6140,조이환전,http://place.map.kakao.com/792433290,서울 중구 퇴계로8길 5
서울 중구 다동 155,1588-5894,환전뱅크,http://place.map.kakao.com/1313772927,서울 중구 남대문로9길 40
서울 중구 충무로1가 25-50,,머니플레닛,http://place.map.kakao.com/1368533805,서울 중구 퇴계로 103
서울 중구 명동2가 32-27,070-8899-2965,해암매점,http://place.map.kakao.com/26894477,서울 중구 명동8길 21-5
서울 중구 충무로1가 25-49,1577-0227,대사관제일환전소,http://place.map.kakao.com/2110318671,서울 중구 명동2길 56-1
서울 중구 남대문로3가 17-2,02-754-7700,서울상역환전,http://place.map.kakao.com/1534092307,서울 중구 남대문로 34-1
서울 중구 충무로1가 25-9,02-777-0245,신세계환전소,http://place.map.kakao.com/1769106002,서울 중구 소공로 64
서울 중구 명동2가 105,02-778-0000,대신환전,http://place.map.kakao.com/20767965,서울 중구 명동2길 26
서울 중구 을지로2가 199-40,010-9069-9893,엑스이,http://place.map.kakao.com/1581318729,서울 중구 명동7길 21
서울 중구 명동2가 105,02-310-9297,코리아환전소,http://place.map.kakao.com/26341905,서울 중구 남대문로 52-13
서울 중구 명동1가 48-2,,아톰환전소,http://place.map.kakao.com/1676750078,서울 중구 명동7길 8
서울 중구 명동2가 53-8,02-318-4666,K환전소,http://place.map.kakao.com/1818857475,서울 중구 명동8길 38-12
서울 중구 충무로1가 25-49,1577-0227,대사관입구환전소,http://place.map.kakao.com/521998587,서울 중구 명동2길 56-1
서울 종로구 종로1가 24,02-730-3818,메가환전,http://place.map.kakao.com/1049843675,서울 종로구 종로 19
서울 중구 남창동 190-11,02-779-5954,모아환전,http://place.map.kakao.com/1747225075,서울 중구 퇴계로6길 18
서울 중구 명동2가 88-1,02-318-8080,홍콩환전,http://place.map.kakao.com/658815583,서울 중구 남대문로 64-1
서울 중구 남창동 62-2,010-5395-5680,동경환전소,http://place.map.kakao.com/14835597,서울 중구 남대문시장4길 48
서울 중구 충무로2가 62-8,02-310-9777,세종환전,http://place.map.kakao.com/1244791873,서울 중구 퇴계로 141
서울 중구 충무로1가 24-1,02-2268-8244,밀리오레환전,http://place.map.kakao.com/586339589,서울 중구 퇴계로 115
서울 중구 남창동 49-1,010-7229-0644,긴자환전소,http://place.map.kakao.com/516778081,서울 중구 남대문시장4길 21
서울 중구 충무로1가 25-3,02-318-1088,K-exchange 명동환전센터,http://place.map.kakao.com/1325457647,서울 중구 명동8나길 39
서울 중구 소공동 25,010-9519-8886,화샤환전소,http://place.map.kakao.com/598538408,서울 중구 남대문로7길 13
서울 종로구 인사동 156,02-736-4999,스타환전,http://place.map.kakao.com/1415681787,서울 종로구 인사동길 15
서울 중구 충무로1가 25-11,02-717-6140,엠엔엠환전,http://place.map.kakao.com/367955916,서울 중구 소공로 66
서울 중구 명동2가 3-1,,플러스환전,http://place.map.kakao.com/20221488,서울 중구 명동10길 11
서울 중구 명동2가 91-1,02-773-8990,모두환전,http://place.map.kakao.com/236334310,서울 중구 명동2길 16
서울 중구 명동2가 101-3,02-757-8880,이지환전금융,http://place.map.kakao.com/1978249610,서울 중구 남대문로 58-1
서울 종로구 인사동 43,02-585-0089,외환포렉스,http://place.map.kakao.com/25420003,서울 종로구 인사동길 12
서울 성동구 사근동 110,,한국외환연구원,http://place.map.kakao.com/10735633,서울 성동구 왕십리로 222
서울 강남구 삼성동 157-37,,하나은행365 구.강남외환센터 ATM,http://place.map.kakao.com/1820042761,서울 강남구 테헤란로 507
서울 강남구 대치동 1005-3,,한국외환연구원,http://place.map.kakao.com/586314209,서울 강남구 영동대로76길 10
서울 강동구 암사동 500-21,02-441-9186,외환열쇠,http://place.map.kakao.com/10627252,서울 강동구 올림픽로98길 11
서울 중구 을지로1가 101-1,1599-1111,하나은행 본점,http://place.map.kakao.com/8124674,서울 중구 을지로 35
서울 종로구 서린동 111-1,02-733-0509,하나은행 서린지점,http://place.map.kakao.com/1079247881,서울 종로구 종로 22
서울 종로구 당주동 5,02-739-3101,하나은행 광화문역지점,http://place.map.kakao.com/1600350486,서울 종로구 새문안로5길 19
서울 중구 충무로1가 25-5,02-775-0350,하나은행 명동금융센터지점,http://place.map.kakao.com/510819664,서울 중구 퇴계로 97
서울 종로구 신문로2가 89-27,02-739-7171,하나은행 서대문지점,http://place.map.kakao.com/8023090,서울 종로구 새문안로 42
서울 종로구 내자동 223,02-723-4151,하나은행 내자동지점,http://place.map.kakao.com/451290158,서울 종로구 사직로8길 39
서울 중구 을지로2가 181,1800-1111,하나카드 본사,http://place.map.kakao.com/12624668,서울 중구 을지로 66
서울 종로구 종로6가 289-57,02-2267-5101,하나은행 동대문지점,http://place.map.kakao.com/1395263471,서울 종로구 종로 272
서울 마포구 공덕동 473,02-715-1372,하나은행 공덕동지점,http://place.map.kakao.com/1458921097,서울 마포구 마포대로 137
서울 마포구 노고산동 107-1,02-718-2281,하나은행 신촌지점,http://place.map.kakao.com/186530066,서울 마포구 서강로 144
서울 마포구 도화동 538,02-717-3536,하나은행 마포지점,http://place.map.kakao.com/647335357,서울 마포구 큰우물로 75
서울 용산구 이태원동 124-1,02-796-1583,IBK기업은행 이태원,http://place.map.kakao.com/24210775,서울 용산구 이태원로27나길 40
서울 서대문구 연희동 137-5,02-322-4275,하나은행 연희동지점,http://place.map.kakao.com/1434688561,서울 서대문구 연희로 103
서울 성북구 안암동5가 126-1,02-929-1111,하나은행 고대병원지점,http://place.map.kakao.com/8649088,서울 성북구 고려대로 73
서울 성북구 안암동5가 43,02-928-1111,하나은행 고대지점,http://place.map.kakao.com/20524344,서울 성북구 고려대로 113
서울 영등포구 여의도동 26-5,02-783-1521,하나은행 여의도금융센터지점,http://place.map.kakao.com/8022031,서울 영등포구 여의나루로 53-1
서울 강남구 논현동 120-4,02-517-6795,하나은행 논현역금융센터지점,http://place.map.kakao.com/8449131,서울 강남구 강남대로 546
서울 서초구 잠원동 69-19,02-503-1111,하나은행 반포타운지점,http://place.map.kakao.com/19236690,서울 서초구 신반포로 213
서울 서초구 서초동 1318-2,02-534-0312,하나은행 강남역지점,http://place.map.kakao.com/8458527,서울 서초구 강남대로 405
서울 마포구 상암동 1651,02-6393-6001,하나은행 jtbc출장소,http://place.map.kakao.com/8021865,서울 마포구 상암산로 48-6
서울 서초구 서초동 1573-1,02-586-5333,하나은행 서초동지점,http://place.map.kakao.com/1405093683,서울 서초구 서초대로 286
서울 서초구 반포동 52-7,02-594-8981,하나은행 반포남지점,http://place.map.kakao.com/1324362654,서울 서초구 서초중앙로 227
서울 서초구 서초동 1319-11,02-598-1111,하나은행 강남역금융센터지점,http://place.map.kakao.com/26849057,서울 서초구 강남대로 381
서울 서초구 방배동 935-34,02-584-4766,하나은행 방배동지점,http://place.map.kakao.com/1264609239,서울 서초구 방배로 131
서울 강남구 삼성동 160,02-2052-6272,하나은행 코엑스지점,http://place.map.kakao.com/1876236155,서울 강남구 영동대로 520
서울 강남구 역삼동 746-1,02-563-0961,하나은행 역삼중앙지점,http://place.map.kakao.com/159308684,서울 강남구 논현로 417
서울 강남구 삼성동 159,02-545-1111,하나은행 무역센터지점,http://place.map.kakao.com/8123482,서울 강남구 테헤란로87길 46
서울 양천구 목동 507-1,02-2644-1571,하나은행 강서금융센터지점,http://place.map.kakao.com/263856867,서울 양천구 공항대로 604
서울 영등포구 대림동 1050-40,02-863-5140,하나은행 대림역지점,http://place.map.kakao.com/295384541,서울 영등포구 도림로 135
서울 서초구 서초동 1535-7,02-586-7151,베리타스자산대부,http://place.map.kakao.com/1291447676,서울 서초구 효령로49길 34
서울 도봉구 창동 338,02-902-2531,하나은행 창동역지점,http://place.map.kakao.com/1031838916,서울 도봉구 노해로 341
서울 노원구 공릉동 408-4,02-949-1111,하나은행 공릉동지점,http://place.map.kakao.com/8648035,서울 노원구 공릉로 187
서울 송파구 잠실동 184,02-473-1111,하나은행 잠실새내역금융센터지점,http://place.map.kakao.com/18662597,서울 송파구 올림픽로 114
서울 광진구 광장동 445-5,02-456-6930,하나은행 광장동지점,http://place.map.kakao.com/358096699,서울 광진구 아차산로 563
서울 서초구 양재동 275,02-589-0589,하나은행 양재중앙지점,http://place.map.kakao.com/149875690,서울 서초구 마방로 68
서울 노원구 상계동 712-1,02-935-1900,하나은행 노원역금융센터지점,http://place.map.kakao.com/1179375080,서울 노원구 노해로 467
서울 구로구 고척동 350,02-2689-1111,하나은행 고척동지점,http://place.map.kakao.com/8126043,서울 구로구 중앙로5길 59
경기 구리시 인창동 676-7,031-566-8000,하나은행 구리금융센터지점,http://place.map.kakao.com/12353397,경기 구리시 경춘로 253
경기 안양시 동안구 호계동 1043,031-383-0384,하나은행 평촌범계역지점,http://place.map.kakao.com/2127097123,경기 안양시 동안구 시민대로 210
경기 부천시 원미구 도당동 10,032-678-1111,하나은행 부천도당금융센터지점,http://place.map.kakao.com/1938334819,경기 부천시 원미구 옥산로 255
부산 부산진구 부전동 256-6,051-803-6657,머니박스 서면지점,http://place.map.kakao.com/1822945067,부산 부산진구 서면로 56
부산 부산진구 부전동 256-19,051-806-3048,나영환전소,http://place.map.kakao.com/868036758,부산 부산진구 서면로 60
부산 부산진구 부전동 256-14,,서울환전소,http://place.map.kakao.com/1001123433,부산 부산진구 서면로 56
부산 부산진구 부전동 256-6,,롯데환전,http://place.map.kakao.com/8957943,부산 부산진구 서면로 56
부산 부산진구 부전동 490-15,,판다,http://place.map.kakao.com/1980625178,부산 부산진구 가야대로784번길 9
부산 수영구 광안동 1330,051-758-8858,머니박스 광안지점,http://place.map.kakao.com/888364194,부산 수영구 광안로 20
부산 동구 초량동 495-2,051-467-8880,머니박스 부산역지점,http://place.map.kakao.com/980926642,부산 동구 중앙대로203번길 10
부산 해운대구 중동 1392-100,051-742-9998,머니박스 해운대지점,http://place.map.kakao.com/497270089,부산 해운대구 해운대해변로 287
부산 동구 초량동 498-2,051-465-4555,아코드환전소,http://place.map.kakao.com/8419912,부산 동구 대영로243번길 75
부산 동구 초량동 562-2,051-441-4804,레오환전소,http://place.map.kakao.com/1723723159,부산 동구 대영로243번길 58
부산 동구 초량동 559-2,,아므로환전소,http://place.map.kakao.com/23637723,부산 동구 중앙대로195번길 9
부산 동구 초량동 1207-12,,정호샵,http://place.map.kakao.com/1672269428,부산 동구 중앙대로 207-1
부산 중구 창선동2가 47-1,051-245-9998,머니박스 남포지점,http://place.map.kakao.com/1002224958,부산 중구 광복로 38
부산 중구 동광동1가 6-7,010-7670-7987,우리환전,http://place.map.kakao.com/1091962074,부산 중구 광복로97번길 14
부산 중구 중앙동4가 83-5,053-216-8668,공항환전,http://place.map.kakao.com/1402486941,부산 중구 중앙대로 102
부산 중구 동광동2가 9-1,010-4553-8940,부산환전,http://place.map.kakao.com/23636975,부산 중구 광복로85번길 17
부산 중구 동광동1가 13-6,051-257-1112,국민환전,http://place.map.kakao.com/8830683,부산 중구 해관로 3
부산 중구 동광동2가 7-3,051-247-4585,천지환전,http://place.map.kakao.com/1057309346,부산 중구 광복로97번길 15-1
부산 중구 동광동1가 6-7,051-246-1258,중앙환전,http://place.map.kakao.com/2065615249,부산 중구 광복로97번길 14
부산 중구 동광동2가 6-6,,영진환전,http://place.map.kakao.com/23636120,부산 중구 광복로97번길 16
부산 중구 신창동2가 22,051-243-2234,소피아환전,http://place.map.kakao.com/1520849068,부산 중구 광복로43번길 11
부산 중구 창선동1가 12-1,010-6856-3303,ABC환전소,http://place.map.kakao.com/24528496,부산 중구 광복로39번길 6
부산 중구 창선동1가 11,010-2345-7211,호호환전,http://place.map.kakao.com/1974978066,부산 중구 광복로43번길 10
부산 강서구 대저2동 2353-1,051-973-9996,머니박스 김해공항지점,http://place.map.kakao.com/1741585229,부산 강서구 공항진입로 165
부산 강서구 대저2동 2350-1,051-971-2643,BNK부산은행 환전소 김해국제공항국제선청사,http://place.map.kakao.com/1526130143,
경남 김해시 서상동 154,,대보환전소,http://place.map.kakao.com/137042763,경남 김해시 분성로 321
경남 김해시 서상동 82-33,055-322-2225,태광환전소,http://place.map.kakao.com/430910343,경남 김해시 가락로94번길 2
부산 금정구 두구동 1641,,BNK부산은행 365코너 경륜3층 동쪽환전소앞,http://place.map.kakao.com/1689580920,부산 금정구 체육공원로399번길 324
부산 금정구 두구동 1641,,BNK부산은행 365코너 경륜4층 동쪽환전소앞,http://place.map.kakao.com/1689016213,부산 금정구 체육공원로399번길 324
부산 금정구 두구동 1641,,BNK부산은행 365코너 경륜2층 수표환전소옆,http://place.map.kakao.com/1690457931,부산 금정구 체육공원로399번길 324
부산 중구 중앙동4가 36,,설외환센타,http://place.map.kakao.com/10366295,
경남 김해시 서상동 154,,하나은행 김해외환센터 ATM,http://place.map.kakao.com/1230885841,경남 김해시 분성로 321
경남 김해시 서상동 154,,하나은행365 김해외환센터 ATM,http://place.map.kakao.com/766467204,경남 김해시 분성로 321
경남 김해시 서상동 154,055-321-5021,하나은행 김해외환센터출장소,http://place.map.kakao.com/11185204,경남 김해시 분성로 321
부산 부산진구 부전동 260-1,051-807-1033,하나은행 서면역지점,http://place.map.kakao.com/1599133717,부산 부산진구 중앙대로 743
부산 사상구 괘법동 561-12,051-322-8621,하나은행 사상지점,http://place.map.kakao.com/1125130114,부산 사상구 새벽로 203
부산 중구 남포동6가 113-1,051-242-4633,하나은행 충무동지점,http://place.map.kakao.com/507536281,부산 중구 구덕로 87-1
경남 양산시 물금읍 가촌리 1295-1,055-387-3100,하나은행 물금신도시지점,http://place.map.kakao.com/255163247,경남 양산시 물금읍 증산역로 149
부산 기장군 정관읍 매학리 713-4,051-728-3393,하나은행 정관지점,http://place.map.kakao.com/1025618259,부산 기장군 정관읍 정관로 569
부산 강서구 명지동 3229-22,051-271-5631,하나은행 명지출장소,http://place.map.kakao.com/20509742,부산 강서구 명지오션시티9로 36
부산 중구 남포동1가 21-6,0502-5551-2838,골드앤와이즈,http://place.map.kakao.com/278730643,부산 중구 구덕로 13
대구 중구 공평동 9,053-431-6577,대신환전소,http://place.map.kakao.com/18055823,대구 중구 국채보상로125길 6
대구 중구 덕산동 124-40,053-423-0888,머니박스 대구점,http://place.map.kakao.com/1651313981,대구 중구 동성로1길 16
대구 중구 전동 33,053-254-8070,대미환전소,http://place.map.kakao.com/581547935,대구 중구 국채보상로 566
대구 남구 이천동 751-2,053-472-8163,굿환전,http://place.map.kakao.com/1798022064,대구 남구 희망로3길 20
대구 남구 봉덕동 664-1,053-476-4042,에이원환전소,http://place.map.kakao.com/1903754576,대구 남구 삼정길 59
대구 남구 봉덕동 664-13,053-471-4845,중앙환전,http://place.map.kakao.com/1903512273,대구 남구 삼정길 73
대구 남구 봉덕동 1409-4,,게이트4환전소,http://place.map.kakao.com/472219559,대구 남구 삼정길 83
대구 남구 봉덕동 1413-4,,비전환전소,http://place.map.kakao.com/301708672,대구 남구 삼정길 87
대구 수성구 삼덕동,,외환,http://place.map.kakao.com/25326887,
대구 수성구 삼덕동 360-4,,외환들공영주차장,http://place.map.kakao.com/27321909,
대구 수성구 삼덕동 374,1899-2100,대구미술관 외환들 주차장 전기차충전소,http://place.map.kakao.com/1355710838,대구 수성구 미술관로 70
대구 수성구 삼덕동,,외환들,http://place.map.kakao.com/25326888,
대구 달서구 이곡동 1220-10,053-580-9000,하나은행 대구성서금융센터지점,http://place.map.kakao.com/943841131,대구 달서구 성서로 399
인천 부평구 십정동 400-57,,우정환전소,http://place.map.kakao.com/169028259,인천 부평구 열우물로50번길 10-7
인천 부평구 십정동 399-9,,동암환전소,http://place.map.kakao.com/27404105,인천 부평구 열우물로50번길 24
인천 부평구 부평동 546-64,032-362-8881,머니박스 부평지점,http://place.map.kakao.com/1771468451,인천 부평구 경원대로 1369
인천 연수구 선학동 367-4,032-812-7727,선학환전소,http://place.map.kakao.com/607072889,인천 연수구 학나래로5번길 19
인천 부평구 부평동 519-9,032-361-1500,세화환전소,http://place.map.kakao.com/692073523,인천 부평구 장제로 99
인천 연수구 연수동 607-6,,대경환전소,http://place.map.kakao.com/176103081,인천 연수구 샘말로 57
인천 연수구 옥련동 537-3,032-777-1131,송도환전,http://place.map.kakao.com/1901646719,인천 연수구 능허대로 208
인천 중구 신흥동2가 1-10,032-888-3465,동방환전소,http://place.map.kakao.com/906652908,인천 중구 서해대로464번길 5-1
경기 부천시 소사구 심곡본동 665,032-668-8860,오성환전소 부천본점,http://place.map.kakao.com/1074675357,경기 부천시 소사구 심곡로9번길 40
인천 중구 신포동 1-6,032-777-3660,신포환전,http://place.map.kakao.com/27120695,인천 중구 우현로 45-1
경기 부천시 소사구 심곡본동 672,010-9256-5991,부천환전소,http://place.map.kakao.com/1431261712,경기 부천시 소사구 경인로 236
인천 중구 답동 18-1,,환채환전소,http://place.map.kakao.com/1476691598,인천 중구 인중로164번길 57
경기 부천시 원미구 중동 1062-4,032-326-2024,금맥환전소,http://place.map.kakao.com/1724564894,경기 부천시 원미구 길주로 307
경기 부천시 소사구 심곡본동 666-3,010-3737-3272,새로이환전소 부천자유시장점,http://place.map.kakao.com/171917914,경기 부천시 소사구 경인로216번길 10
경기 부천시 원미구 심곡동 167-27,,대복환전소,http://place.map.kakao.com/121484041,경기 부천시 원미구 부천로30번길 30
인천 중구 신생동 7-19,,태화환전,http://place.map.kakao.com/1488949495,인천 중구 제물량로166번길 4
인천 계양구 작전동 871-20,,티켓데일리,http://place.map.kakao.com/1899927651,인천 계양구 주부토로 399
경기 부천시 소사구 심곡본동 738-20,010-4101-6800,우리환전소,http://place.map.kakao.com/205625116,경기 부천시 소사구 경인로 256
인천 연수구 송도동 15-12,02-1644-4627,머니넷익스체인지,http://place.map.kakao.com/1696298629,인천 연수구 컨벤시아대로42번길 8
인천 중구 신생동 10-35,032-766-8187,고려환전,http://place.map.kakao.com/1434937135,인천 중구 우현로20번길 9-1
경기 부천시 원미구 심곡동 165-20,010-6547-6548,우정환전소,http://place.map.kakao.com/187530146,경기 부천시 원미구 부일로483번길 30
인천 중구 답동 64-1,010-6561-7761,대명무역,http://place.map.kakao.com/7138402,인천 중구 우현로20번길 37-1
경기 부천시 소사구 심곡본동 731-12,010-8378-9862,대왕환전소,http://place.map.kakao.com/1628423719,경기 부천시 소사구 성주로 268
경기 부천시 원미구 심곡동 148-3,,뉴월드환전소,http://place.map.kakao.com/619754231,경기 부천시 원미구 부일로495번길 30
경기 부천시 원미구 원미동 130-1,010-2181-9080,신세계환전소,http://place.map.kakao.com/45258037,경기 부천시 원미구 조종로 14
경기 부천시 원미구 원미동 147-1,010-3959-6456,오복환전소,http://place.map.kakao.com/2023906362,경기 부천시 원미구 부천로90번길 46
경기 부천시 원미구 심곡동 161-20,,김택요환전소,http://place.map.kakao.com/1610238617,경기 부천시 원미구 부천로 42
경기 부천시 소사구 소사본동 141-26,010-8525-2999,텐텐환전소,http://place.map.kakao.com/1473822679,경기 부천시 소사구 소삼로 10
경기 부천시 소사구 소사본동 77-30,032-202-9626,국제환전소,http://place.map.kakao.com/1826866328,경기 부천시 소사구 은성로19번길 81
경기 부천시 소사구 심곡본동 671-1,,만성환전소,http://place.map.kakao.com/465616934,경기 부천시 소사구 경인로 232
경기 부천시 원미구 소사동 17-10,032-278-1868,대성환전소,http://place.map.kakao.com/2030777623,경기 부천시 원미구 부일로 567
경기 부천시 소사구 소사본동 132-3,010-9903-7771,우의환전소,http://place.map.kakao.com/584726745,경기 부천시 소사구 호현로 479-1
경기 부천시 소사구 소사본동 141-66,010-8222-9277,안전환전소,http://place.map.kakao.com/1546374022,경기 부천시 소사구 소삼로 8
경기 부천시 원미구 소사동 46-10,032-346-6522,해원환전소,http://place.map.kakao.com/153762782,경기 부천시 원미구 부일로 558
경기 부천시 소사구 소사본동 78-42,010-7134-6789,신화환전소,http://place.map.kakao.com/1572222001,경기 부천시 소사구 소삼로15번길 3
경기 부천시 소사구 소사본동 68-16,010-6634-8828,새로이여행사환전소 2호점소사역점,http://place.map.kakao.com/1877160310,경기 부천시 소사구 경인옛로22번길 14
인천 연수구 송도동 8-3,032-858-8838,머니박스 송도지점,http://place.map.kakao.com/90107536,인천 연수구 인천타워대로132번길 30
인천 중구 항동7가 87-9,,일신환전,http://place.map.kakao.com/847825167,인천 중구 연안부두로 69-1
경기 부천시 원미구 역곡동 85,070-7352-5288,홍왕환전소,http://place.map.kakao.com/1122803639,경기 부천시 원미구 역곡로 30
서울 강서구 방화동 886,,신한은행 환전소(1층 입국장) 김포국제공항국제선,http://place.map.kakao.com/428572375,서울 강서구 하늘길 38
경기 안산시 단원구 원곡동 785-5,031-504-0288,비비씨환전소,http://place.map.kakao.com/1582861610,경기 안산시 단원구 원본로 8
인천 중구 운서동 2803-1,032-746-1888,머니박스 운서역지점,http://place.map.kakao.com/793507934,인천 중구 신도시남로142번길 6
서울 강서구 방화동 882-1,,신한은행 환전소(3층 출국장) 김포국제공항국제선,http://place.map.kakao.com/349228801,서울 강서구 하늘길 38
경기 시흥시 정왕동 1213-2,031-497-5864,항통환전소,http://place.map.kakao.com/2002739990,경기 시흥시 군서로 27-1
서울 영등포구 대림동 1031-1,,대림환전소,http://place.map.kakao.com/1834331231,서울 영등포구 디지털로54길 3
경기 안산시 단원구 원곡동 746-12,,신한 안산스마트금융센터 ATM 원곡동외환센터무인점포,http://place.map.kakao.com/2135672139,경기 안산시 단원구 원본로 11
경기 안산시 단원구 원곡동 792-4,,하나은행365 원곡동 외환센터 ATM,http://place.map.kakao.com/847657626,경기 안산시 단원구 원본로 20
경기 안산시 단원구 원곡동 792-5,1588-9999,KB국민은행 원곡동외환송금센터(점),http://place.map.kakao.com/17608788,경기 안산시 단원구 원본로 22
경기 안산시 단원구 원곡동 792-4,031-493-1111,하나은행 원곡동외환센터출장소,http://place.map.kakao.com/11223192,경기 안산시 단원구 원본로 20
경기 안산시 단원구 원곡동 792-5,,KB국민은행ATM 원곡동외환송금센터점,http://place.map.kakao.com/1929855607,경기 안산시 단원구 원본로 22
인천 미추홀구 주안동 953-4,032-450-9000,하나은행 주안지점,http://place.map.kakao.com/914472737,인천 미추홀구 경인로 463
인천 남동구 논현동 449-6,032-814-2239,하나은행 남동산단금융센터지점,http://place.map.kakao.com/1925957646,인천 남동구 남동대로239번길 96
인천 연수구 동춘동 925-7,032-815-4021,하나은행 동춘동출장소,http://place.map.kakao.com/11190132,인천 연수구 원인재로 88
인천 남동구 논현동 631-7,032-421-1111,하나은행 인천논현지점,http://place.map.kakao.com/10876564,인천 남동구 청능대로 563
인천 부평구 청천동 409-5,032-526-0134,하나은행 부평지점,http://place.map.kakao.com/2114639780,인천 부평구 안남로434번길 5
인천 계양구 작전동 901-4,032-549-1106,하나은행 작전동지점,http://place.map.kakao.com/2058973547,인천 계양구 장제로 708
경기 안산시 단원구 원곡동 994-5,031-492-5224,하나은행 반월기업센터지점,http://place.map.kakao.com/480532,경기 안산시 단원구 산단로 342
광주 서구 치평동 265-1,062-385-6885,상무환전,http://place.map.kakao.com/92554430,광주 서구 상무대로 799
광주 서구 화정동 23-147,062-226-7972,머니박스 광주지점,http://place.map.kakao.com/1634251486,광주 서구 내방로 367
광주 광산구 월곡동 551-1,010-8428-5877,삼일환전소,http://place.map.kakao.com/272838814,광주 광산구 월곡중앙로37번길 5
광주 광산구 산정동 937-5,,광주환전소,http://place.map.kakao.com/1372186099,광주 광산구 산정공원로 63-1
대전 서구 괴정동 5-13,,대전환전소,http://place.map.kakao.com/128864697,대전 서구 도솔로 389
대전 동구 자양동 56-11,042-636-8688,금성환전소여행사,http://place.map.kakao.com/17834716,대전 동구 동대전로 169
대전 서구 도안동 855,042-534-7801,하나은행 도안신도시출장소,http://place.map.kakao.com/1096099140,대전 서구 동서대로 700
대전 동구 가오동 646,042-721-1111,하나은행 가오동지점,http://place.map.kakao.com/8649083,대전 동구 은어송로 62
울산 남구 삼산동 1479-5,052-258-8881,머니박스 울산삼산지점,http://place.map.kakao.com/323707346,울산 남구 삼산로 274
울산 남구 야음동 373-1,010-5716-9166,금옥환전소,http://place.map.kakao.com/134720245,울산 남구 수암로 290
울산 남구 야음동 376-4,010-4402-9888,88환전소,http://place.map.kakao.com/220782204,울산 남구 수암로288번길 15
울산 울주군 온산읍 덕신리 1288-3,010-5716-9166,호운래환전소 덕신점,http://place.map.kakao.com/569315990,울산 울주군 온산읍 온덕2길 21-1
울산 동구 전하동 664-21,010-8481-5158,대왕환전소,http://place.map.kakao.com/1036939372,울산 동구 진성5길 36
울산 울주군 범서읍 구영리 853-2,052-211-6031,하나은행 구영지점,http://place.map.kakao.com/711194066,울산 울주군 범서읍 구영로 100
울산 북구 양정동 750,052-287-1123,하나은행 양정동지점,http://place.map.kakao.com/818808723,울산 북구 염포로 601
울산 남구 매암동 220-13,052-260-5102,하나은행 장생포출장소,http://place.map.kakao.com/8022037,울산 남구 장생포고래로 261
울산 북구 양정동 700,052-287-3234,하나은행 현대자동차출장소,http://place.map.kakao.com/8495444,울산 북구 염포로 700
세종특별자치시 장군면 봉안리 377-8,010-2226-6088,세종환전소,http://place.map.kakao.com/853077369,세종특별자치시 장군면 장척로 571
충남 공주시 산성동 120-1,041-855-1111,하나은행 공주지점,http://place.map.kakao.com/8146152,충남 공주시 웅진로 186
경기 수원시 권선구 권선동 1017-13,,월드환전상품권,http://place.map.kakao.com/643651434,경기 수원시 권선구 경수대로384번길 45
경기 수원시 팔달구 인계동 762-17,010-5802-7666,대원환전소,http://place.map.kakao.com/2040999307,경기 수원시 팔달구 중부대로34번길 16
경기 수원시 권선구 세류동 1089-3,010-2714-9997,애플환전소,http://place.map.kakao.com/850884847,경기 수원시 권선구 세지로 50
경기 수원시 팔달구 지동 427-2,031-241-5688,365환전소,http://place.map.kakao.com/1293266362,경기 수원시 팔달구 중부대로 29
경기 수원시 팔달구 매산로1가 58-16,010-3223-3489,더상품권환전,http://place.map.kakao.com/921640750,경기 수원시 팔달구 매산로 2-1
경기 수원시 팔달구 매산로1가 16-5,031-248-7888,머니박스 수원점,http://place.map.kakao.com/804549786,경기 수원시 팔달구 향교로1번길 2
경기 수원시 팔달구 매산로1가 10,,수원역 환전소,http://place.map.kakao.com/1821466386,경기 수원시 팔달구 덕영대로895번길 8
경기 수원시 팔달구 고등동 58-23,010-5898-8521,777환전소,http://place.map.kakao.com/847029682,경기 수원시 팔달구 고매로 25
경기 수원시 팔달구 매산로2가 14-1,070-8874-8886,88환전소,http://place.map.kakao.com/1153871532,경기 수원시 팔달구 갓매산로 61
경기 수원시 팔달구 고등동 112-3,031-245-8088,금해환전소,http://place.map.kakao.com/801701100,경기 수원시 팔달구 고매로20번길 2
경기 수원시 영통구 영통동 1009-3,031-205-9779,길내환전소,http://place.map.kakao.com/1774836260,경기 수원시 영통구 반달로 31
경기 화성시 병점동 381-17,010-6773-5512,역전환전소,http://place.map.kakao.com/1245728006,경기 화성시 경기대로 1025-5
경기 오산시 궐동 653-2,010-2624-5155,보성환전소,http://place.map.kakao.com/1833191288,경기 오산시 법원로 66
경기 안산시 상록구 일동 663-15,,상록환전소,http://place.map.kakao.com/1895325959,경기 안산시 상록구 매화로2길 45
경기 오산시 궐동 657-1,031-377-0320,아시아여행사환전소,http://place.map.kakao.com/1123458629,경기 오산시 법원로 52
경기 화성시 향남읍 평리 89-15,,GME 화성지점,http://place.map.kakao.com/504093705,경기 화성시 향남읍 3.1만세로 1109-3
경기 안양시 만안구 안양동 834-1,031-342-8188,안양환전소,http://place.map.kakao.com/1577608835,경기 안양시 만안구 안양로405번길 17
경기 용인시 처인구 김량장동 139-5,010-4533-6867,중국식품,http://place.map.kakao.com/1058928673,경기 용인시 처인구 백옥대로 1135
경기 오산시 궐동 653-5,031-377-8333,중한여행사환전소,http://place.map.kakao.com/1833005456,경기 오산시 법원로 60
경기 군포시 산본동 98-14,010-3753-7812,성원환전여행사,http://place.map.kakao.com/1823581909,경기 군포시 산본천로227번길 7
경기 오산시 오산동 873-6,070-8714-6069,중화여행사환전소,http://place.map.kakao.com/1637379810,경기 오산시 오산로 248
경기 안양시 만안구 안양동 823-25,,판다환전소 안양점,http://place.map.kakao.com/159173426,경기 안양시 만안구 안양로405번길 37
경기 화성시 향남읍 평리 115-10,031-353-5398,평안환전소,http://place.map.kakao.com/2067592256,경기 화성시 향남읍 평3길 24-1
경기 오산시 오산동 859-20,031-376-1869,흠홍환전소,http://place.map.kakao.com/227488694,경기 오산시 오산로 260
경기 오산시 오산동 859-6,031-375-4705,고려환전소,http://place.map.kakao.com/25991435,경기 오산시 오산로 262
경기 오산시 오산동 857-6,031-372-1666,평안환전소,http://place.map.kakao.com/2097760549,경기 오산시 오산로 273
경기 군포시 산본동 98-25,,동북환전소,http://place.map.kakao.com/147839077,경기 군포시 산본천로225번길 9
경기 화성시 향남읍 발안리 130-2,031-366-6786,보국화전소,http://place.map.kakao.com/1862873769,경기 화성시 향남읍 발안서로42번길 16
경기 오산시 오산동 858-16,,영신환전소,http://place.map.kakao.com/651530543,경기 오산시 오산로 253
경기 화성시 향남읍 평리 32-1,070-8849-3599,E9페이,http://place.map.kakao.com/1432184827,경기 화성시 향남읍 3.1만세로 1127
경기 군포시 산본동 98-5,,압록강환전소,http://place.map.kakao.com/384913949,경기 군포시 산본천로229번길 5
경기 화성시 남양읍 남양리 1165-5,010-5785-6488,금원환전,http://place.map.kakao.com/682497389,경기 화성시 남양읍 남양시장로 68
경기 화성시 향남읍 평리 108-2,031-8058-2560,신한환전소,http://place.map.kakao.com/356345664,경기 화성시 향남읍 3.1만세로 1099
경기 안양시 만안구 안양동 528-13,,외환캐피탈,http://place.map.kakao.com/10080222,경기 안양시 만안구 만안로 49
경기 오산시 궐동 677-17,,FX원 국제외환점,http://place.map.kakao.com/1607770467,경기 오산시 궐동로7번길 3-12
경기 수원시 팔달구 인계동 763-8,031-259-9200,하나은행 수원지점,http://place.map.kakao.com/797662949,경기 수원시 팔달구 중부대로 32
경기 용인시 수지구 상현동 1131-7,031-213-1111,하나은행 광교신도시지점,http://place.map.kakao.com/18249195,경기 용인시 수지구 광교중앙로 302
경기 용인시 기흥구 구갈동 352,031-287-1111,하나은행 기흥지점,http://place.map.kakao.com/8132099,경기 용인시 기흥구 구갈로 70
경기 용인시 기흥구 하갈동 477-1,031-281-0707,레이크골프클럽,http://place.map.kakao.com/19634791,경기 용인시 기흥구 덕영대로 1811-1
경기 용인시 수지구 풍덕천동 1080-19,1588-9999,KB국민은행 수지종합금융센터,http://place.map.kakao.com/8696679,경기 용인시 수지구 문정로 15
경기 안양시 동안구 호계동 802-5,031-459-0161,하나은행 호계동지점,http://place.map.kakao.com/10620603,경기 안양시 동안구 경수대로 466
경기 성남시 분당구 야탑동 358-1,031-707-0455,SGI서울보증 중앙보험대리점,http://place.map.kakao.com/1062843740,경기 성남시 분당구 야탑로81번길 16
경기 성남시 분당구 야탑동 358-1,031-781-5040,SGI서울보증 베스트현대대리점,http://place.map.kakao.com/1034661895,경기 성남시 분당구 야탑로81번길 16
경기 성남시 분당구 야탑동 358-1,031-709-2263,SGI서울보증 모란대리점,http://place.map.kakao.com/753059335,경기 성남시 분당구 야탑로81번길 16
경기 성남시 분당구 야탑동 358-1,031-781-1174,SGI서울보증 다누리보험대리점,http://place.map.kakao.com/1544829858,경기 성남시 분당구 야탑로81번길 16
경기 성남시 분당구 야탑동 358-1,031-709-3444,SGI서울보증 성남지점 강남동산대리점,http://place.map.kakao.com/1627948474,경기 성남시 분당구 야탑로81번길 16
경기 오산시 원동 766-2,031-372-5553,한국금환전거래소 오산점,http://place.map.kakao.com/15653289,경기 오산시 경기대로 240
경기 군포시 산본동 97,031-392-6888,중국식품&환전,http://place.map.kakao.com/1685582687,경기 군포시 산본천로221번길 28
충북 청주시 청원구 오창읍 양청리 792-5,043-214-8652,하나은행 오창금융센터지점,http://place.map.kakao.com/347480548,충북 청주시 청원구 오창읍 중심상업로 31-4
충남 천안시 동남구 신부동 466-7,,상해여행환전소,http://place.map.kakao.com/1567444660,충남 천안시 동남구 먹거리8길 43
충남 천안시 동남구 신부동 465-8,041-522-1717,천안환전소,http://place.map.kakao.com/292797848,충남 천안시 동남구 먹거리8길 33
경기 평택시 팽성읍 안정리 134-25,031-691-9790,빅토리환전소,http://place.map.kakao.com/26558910,경기 평택시 팽성읍 안정순환로 112
경기 평택시 팽성읍 안정리 113-276,031-654-5567,로데오환전소,http://place.map.kakao.com/796192066,경기 평택시 팽성읍 안정순환로 118
경기 평택시 팽성읍 안정리 134-19,031-691-9013,OK스토어,http://place.map.kakao.com/1739693865,경기 평택시 팽성읍 안정쇼핑로 2
경기 평택시 팽성읍 안정리 134-19,,호스동신사,http://place.map.kakao.com/1258061333,경기 평택시 팽성읍 안정쇼핑로 2
경기 평택시 팽성읍 안정리 139-3,031-654-2754,이노피아환전소,http://place.map.kakao.com/1371522513,경기 평택시 팽성읍 안정순환로104번길 23
경기 평택시 팽성읍 안정리 134-50,,크라운샾,http://place.map.kakao.com/1257369676,경기 평택시 팽성읍 안정쇼핑로 6-1
충남 아산시 온천동 211-7,041-542-7888,중한여행사환전소,http://place.map.kakao.com/500494708,충남 아산시 온천대로 1483
충남 아산시 둔포면 둔포리 414-16,010-3171-6510,황씨중국식품,http://place.map.kakao.com/1331410039,충남 아산시 둔포면 둔포면로 8-3
충남 천안시 동남구 문화동 61-5,041-563-6930,하나은행 천안역지점,http://place.map.kakao.com/238966519,충남 천안시 동남구 버들로 17
충남 천안시 서북구 불당동 1535-1,,하나은행 천안불당지점,http://place.map.kakao.com/3183013,충남 천안시 서북구 불당22대로 92
충남 천안시 서북구 성성동 511-1,041-621-9800,하나은행 천안공단금융센터지점,http://place.map.kakao.com/53115873,충남 천안시 서북구 3공단2로 90-27
전북특별자치도 군산시 수송동 827-15,063-446-8111,하나은행 군산지점,http://place.map.kakao.com/1971909601,전북특별자치도 군산시 월명로 260
전남 영암군 삼호읍 용당리 2178-2,061-461-2111,하나은행 현대삼호중공업출장소,http://place.map.kakao.com/11250095,전남 영암군 삼호읍 신항로 63-12
전남 여수시 교동 345-1,061-663-8000,하나은행 여수지점,http://place.map.kakao.com/8447775,전남 여수시 통제영4길 3
전남 순천시 해룡면 신대리 1973-2,061-725-8000,하나은행 순천신대지점,http://place.map.kakao.com/613433779,전남 순천시 해룡면 향매로 59
경남 창원시 진해구 용원동 1243-15,010-9387-4477,호운래환전소 용원점,http://place.map.kakao.com/2120013999,경남 창원시 진해구 용원로90번길 11-1
경남 창원시 마산합포구 해운동 63,055-245-4556,한국금환전거래소 창원마산점,http://place.map.kakao.com/421766831,경남 창원시 마산합포구 해안대로 11
제주특별자치도 제주시 연동 292-7,,천지환전소,http://place.map.kakao.com/586310012,제주특별자치도 제주시 삼무로 70
제주특별자치도 제주시 노형동 928,064-743-8887,머니박스 제주지점,http://place.map.kakao.com/597620007,제주특별자치도 제주시 원노형4길 1
제주특별자치도 제주시 도두이동 1,064-746-0607,제주은행환전소(3층) 제주국제공항,http://place.map.kakao.com/354405158,
제주특별자치도 제주시 연동 260-22,010-3780-9888,한중환전소,http://place.map.kakao.com/305400571,제주특별자치도 제주시 삼무로 29
제주특별자치도 제주시 도두이동 1,,글로벌텍스프리 제주공항지점,http://place.map.kakao.com/1375365423,
제주특별자치도 제주시 용담이동 833-2,064-746-0607,제주은행환전소(1층) 제주국제공항,http://place.map.kakao.com/26877283,
제주특별자치도 제주시 연동 262-38,064-746-3872,알로하쇼핑,http://place.map.kakao.com/1297462261,제주특별자치도 제주시 노연로 75
제주특별자치도 제주시 용담이동 833-2,,글로벌텍스프리 제주국제공항점,http://place.map.kakao.com/873821374,
제주특별자치도 제주시 연동 262-40,,그랜드,http://place.map.kakao.com/976064705,제주특별자치도 제주시 노연로 77
제주특별자치도 제주시 노형동 930-1,,명월환전소,http://place.map.kakao.com/1989185748,제주특별자치도 제주시 노연로 30
제주특별자치도 제주시 일도일동 1430,064-757-2171,하나은행 제주금융센터지점,http://place.map.kakao.com/2007711748,제주특별자치도 제주시 중앙로 58
